[{"OBJECT_NAME":"STARLINK-4017","OBJECT_ID":"2022-053AC","EPOCH":"2026-03-09T11:45:14.056128","MEAN_MOTION":15.08836483,"ECCENTRICITY":8.141e-5,"INCLINATION":53.2172,"RA_OF_ASC_NODE":145.0152,"ARG_OF_PERICENTER":85.6039,"MEAN_ANOMALY":274.5046,"EPHEMERIS_TYPE":0,"CLASSIFICATION_TYPE":"U","NORAD_CAT_ID":52682,"ELEMENT_SET_NO":999,"REV_AT_EPOCH":21112,"BSTAR":-2.0595768e-5,"MEAN_MOTION_DOT":-6.15e-6,"MEAN_MOTION_DDOT":0},{"OBJECT_NAME":"FENGYUN 1C DEB","OBJECT_ID":"1999-025DDJ","EPOCH":"2026-03-01T18:34:40.606176","MEAN_MOTION":14.6204627,"ECCENTRICITY":0.02210591,"INCLINATION":98.62,"RA_OF_ASC_NODE":179.8313,"ARG_OF_PERICENTER":250.664,"MEAN_ANOMALY":107.0539,"EPHEMERIS_TYPE":0,"CLASSIFICATION_TYPE":"U","NORAD_CAT_ID":33625,"ELEMENT_SET_NO":999,"REV_AT_EPOCH":62545,"BSTAR":0.0012246157,"MEAN_MOTION_DOT":8.674e-5,"MEAN_MOTION_DDOT":0}]
